STARLINK-36593          
1 67564U 26016D   26201.92118039  .00010189  00000+0  31748-3 0  9991
2 67564  97.2838 261.4644 0001344  98.2152 261.9243 15.33448964 27286
STARLINK-35725          
1 67565U 26016E   26201.74444430  .00006283  00000+0  19676-3 0  9995
2 67565  97.2844 261.2470 0000984 177.4864 182.6384 15.33448063 27250
STARLINK-36394          
1 67566U 26016F   26201.74716109  .00009344  00000+0  29125-3 0  9992
2 67566  97.2847 261.2440 0001719 232.7184 127.3902 15.33460806 27259
STARLINK-36352          
1 67567U 26016G   26201.91030155  .00012171  00000+0  37864-3 0  9993
2 67567  97.2852 261.4838 0000483 221.5688 138.5518 15.33450992 27286
STARLINK-36435          
1 67568U 26016H   26201.70366248  .00011859  00000+0  36906-3 0  9994
2 67568  97.2844 261.3034 0000931  48.7525 311.3797 15.33447807 27250
STARLINK-36575          
1 67569U 26016J   26201.89003066  .00006544  00000+0  20486-3 0  9992
2 67569  97.2846 262.4208 0000569  98.6772 261.4535 15.33441160 27344
STARLINK-36562          
1 67570U 26016K   26201.90758561  .00010496  00000+0  32697-3 0  9991
2 67570  97.2851 261.4875 0000740 111.2494 248.8828 15.33446984 27281
STARLINK-36578          
1 67571U 26016L   26201.74988111  .00010227  00000+0  31867-3 0  9990
2 67571  97.2844 261.2402 0001274 214.5535 145.5625 15.33446931 27251
STARLINK-36350          
1 67572U 26016M   26201.73900786  .00013664  00000+0  42477-3 0  9999
2 67572  97.2845 261.2555 0000358 204.9989 155.1236 15.33447991 27252
STARLINK-36588          
1 67573U 26016N   26201.74172348  .00014616  00000+0  45406-3 0  9999
2 67573  97.2855 261.2517 0000991 270.4525  89.6604 15.33454836 27255
STARLINK-36594          
1 67574U 26016P   26201.90486691  .00009199  00000+0  28690-3 0  9993
2 67574  97.2854 261.4913 0000627  99.9425 260.1888 15.33447215 27282
STARLINK-36400          
1 67575U 26016Q   26201.72813423  .00010918  00000+0  34003-3 0  9997
2 67575  97.2843 261.2719 0000832 114.2555 245.8775 15.33444069 27252
STARLINK-36591          
1 67576U 26016R   26201.71725630  .00009209  00000+0  28719-3 0  9997
2 67576  97.2845 261.2868 0000502 112.5094 247.6202 15.33450009 27259
STARLINK-36590          
1 67577U 26016S   26201.73085104  .00011352  00000+0  35343-3 0  9998
2 67577  97.2840 261.2672 0000789 156.2878 203.8401 15.33444786 27250
STARLINK-36613          
1 67578U 26016T   26201.88583316  .00012769  00000+0  39720-3 0  9999
2 67578  97.2837 261.3644 0000608 159.6247 200.5020 15.33443896 27278
STARLINK-36571          
1 67579U 26016U   26201.86408810  .00011770  00000+0  36607-3 0  9995
2 67579  97.2841 261.3929 0000776  76.5247 283.6083 15.33467918 27275
STARLINK-36612          
1 67580U 26016V   26201.69822313  .00015741  00000+0  48880-3 0  9994
2 67580  97.2856 261.3126 0001143 340.8803  19.2397 15.33450472 27252
STARLINK-36632          
1 67581U 26016W   26201.91845962  .00013208  00000+0  41064-3 0  9998
2 67581  97.2848 261.4724 0000462 107.7189 252.4105 15.33451823 27281
STARLINK-36609          
1 67582U 26016X   26201.86680193  .00012704  00000+0  39514-3 0  9993
2 67582  97.2844 261.3889 0000984 101.5679 258.5675 15.33446640 27273
STARLINK-36577          
1 67583U 26016Y   26201.89126970  .00008174  00000+0  25524-3 0  9997
2 67583  97.2850 261.5064 0000243 164.2651 195.8600 15.33446292 27287
STARLINK-36419          
1 67584U 26016Z   26201.70637745  .00011849  00000+0  36875-3 0  9999
2 67584  97.2844 261.3000 0001793 204.7196 155.3961 15.33446025 27256
STARLINK-36560          
1 67585U 26016AA  26201.88310913  .00015273  00000+0  47429-3 0  9996
2 67585  97.2859 261.3677 0001232 236.8753 123.2372 15.33455184 27274
STARLINK-36641          
1 67589U 26018A   26201.74969654  .00016715  00000+0  51887-3 0  9994
2 67589  97.2847 266.0366 0000227  80.1844 279.9424 15.33448523 27722
STARLINK-36376          
1 67590U 26018B   26201.73066317  .00014709  00000+0  45735-3 0  9995
2 67590  97.2844 266.0628 0001228 218.3405 141.7750 15.33424592 27720
STARLINK-36391          
1 67591U 26018C   26201.89379483  .00015893  00000+0  49330-3 0  9994
2 67591  97.2839 266.1498 0000950 105.5760 254.5588 15.33462738 27741
STARLINK-36603          
1 67592U 26018D   26201.72522392  .00010351  00000+0  32248-3 0  9990
2 67592  97.2845 266.0714 0000384 223.6451 136.4762 15.33446798 27727
STARLINK-36634          
1 67593U 26018E   26201.91555365  .00008924  00000+0  27840-3 0  9993
2 67593  97.2861 266.2733 0000778 102.2568 257.8762 15.33447298 27754
STARLINK-36638          
1 67594U 26018F   26201.75785268  .00007892  00000+0  24655-3 0  9997
2 67594  97.2840 266.0264 0000236 217.2223 142.9003 15.33440844 27722
STARLINK-36628          
1 67595U 26018G   26201.93186506  .00013920  00000+0  43258-3 0  9997
2 67595  97.2847 266.2490 0000129 206.6472 153.4764 15.33453492 27759
STARLINK-36629          
1 67596U 26018H   26201.74425759  .00008265  00000+0  25803-3 0  9995
2 67596  97.2844 266.0437 0000151  67.2798 292.8460 15.33446532 27728
