OBJECT_NAME,OBJECT_ID,EPOCH,MEAN_MOTION,ECCENTRICITY,INCLINATION,RA_OF_ASC_NODE,ARG_OF_PERICENTER,MEAN_ANOMALY,EPHEMERIS_TYPE,CLASSIFICATION_TYPE,NORAD_CAT_ID,ELEMENT_SET_NO,REV_AT_EPOCH,BSTAR,MEAN_MOTION_DOT,MEAN_MOTION_DDOT
STARLINK-36593,2026-016D,2026-07-20T22:06:29.985696,15.33448964,.00013442,97.2838,261.4644,98.2152,261.9243,0,U,67564,999,2728,.31747561E-3,.10189E-3,0
STARLINK-35725,2026-016E,2026-07-20T17:51:59.987520,15.33448063,.00009842,97.2844,261.2470,177.4864,182.6384,0,U,67565,999,2725,.19676324E-3,.6283E-4,0
STARLINK-36394,2026-016F,2026-07-20T17:55:54.718176,15.33460806,.00017198,97.2847,261.2440,232.7184,127.3902,0,U,67566,999,2725,.29124708E-3,.9344E-4,0
STARLINK-36352,2026-016G,2026-07-20T21:50:50.053920,15.33450992,.00004833,97.2852,261.4838,221.5688,138.5518,0,U,67567,999,2728,.37864098E-3,.12171E-3,0
STARLINK-36435,2026-016H,2026-07-20T16:53:16.438272,15.33447807,.00009312,97.2844,261.3034,48.7525,311.3797,0,U,67568,999,2725,.36905737E-3,.11859E-3,0
STARLINK-36575,2026-016J,2026-07-20T21:21:38.649024,15.33441160,.00005695,97.2846,262.4208,98.6772,261.4535,0,U,67569,999,2734,.20486343E-3,.6544E-4,0
STARLINK-36562,2026-016K,2026-07-20T21:46:55.396704,15.33446984,.00007406,97.2851,261.4875,111.2494,248.8828,0,U,67570,999,2728,.32696971E-3,.10496E-3,0
STARLINK-36578,2026-016L,2026-07-20T17:59:49.727904,15.33446931,.00012746,97.2844,261.2402,214.5535,145.5625,0,U,67571,999,2725,.31866908E-3,.10227E-3,0
STARLINK-36350,2026-016M,2026-07-20T17:44:10.279104,15.33447991,.00003584,97.2845,261.2555,204.9989,155.1236,0,U,67572,999,2725,.42476823E-3,.13664E-3,0
STARLINK-36588,2026-016N,2026-07-20T17:48:04.908672,15.33454836,.00009916,97.2855,261.2517,270.4525,89.6604,0,U,67573,999,2725,.45405783E-3,.14616E-3,0
STARLINK-36594,2026-016P,2026-07-20T21:43:00.501024,15.33447215,.00006278,97.2854,261.4913,99.9425,260.1888,0,U,67574,999,2728,.28690085E-3,.9199E-4,0
STARLINK-36400,2026-016Q,2026-07-20T17:28:30.797472,15.33444069,.00008328,97.2843,261.2719,114.2555,245.8775,0,U,67575,999,2725,.34003286E-3,.10918E-3,0
STARLINK-36591,2026-016R,2026-07-20T17:12:50.944320,15.33450009,.00005026,97.2845,261.2868,112.5094,247.6202,0,U,67576,999,2725,.28718811E-3,.9209E-4,0
STARLINK-36590,2026-016S,2026-07-20T17:32:25.529856,15.33444786,.00007895,97.2840,261.2672,156.2878,203.8401,0,U,67577,999,2725,.35342849E-3,.11352E-3,0
STARLINK-36613,2026-016T,2026-07-20T21:15:35.985024,15.33443896,.00006088,97.2837,261.3644,159.6247,200.5020,0,U,67578,999,2727,.39720032E-3,.12769E-3,0
STARLINK-36571,2026-016U,2026-07-20T20:44:17.211840,15.33467918,.00007769,97.2841,261.3929,76.5247,283.6083,0,U,67579,999,2727,.36607031E-3,.1177E-3,0
STARLINK-36612,2026-016V,2026-07-20T16:45:26.478432,15.33450472,.00011433,97.2856,261.3126,340.8803,19.2397,0,U,67580,999,2725,.48879577E-3,.15741E-3,0
STARLINK-36632,2026-016W,2026-07-20T22:02:34.911168,15.33451823,.00004627,97.2848,261.4724,107.7189,252.4105,0,U,67581,999,2728,.41063867E-3,.13208E-3,0
STARLINK-36609,2026-016X,2026-07-20T20:48:11.686752,15.33446640,.00009848,97.2844,261.3889,101.5679,258.5675,0,U,67582,999,2727,.39513672E-3,.12704E-3,0
STARLINK-36577,2026-016Y,2026-07-20T21:23:25.702080,15.33446292,.0000243,97.2850,261.5064,164.2651,195.8600,0,U,67583,999,2728,.25524327E-3,.8174E-4,0
STARLINK-36419,2026-016Z,2026-07-20T16:57:11.011680,15.33446025,.00017939,97.2844,261.3000,204.7196,155.3961,0,U,67584,999,2725,.36874646E-3,.11849E-3,0
STARLINK-36560,2026-016AA,2026-07-20T21:11:40.628832,15.33455184,.0001232,97.2859,261.3677,236.8753,123.2372,0,U,67585,999,2727,.47429427E-3,.15273E-3,0
STARLINK-36641,2026-018A,2026-07-20T17:59:33.781056,15.33448523,.00002278,97.2847,266.0366,80.1844,279.9424,0,U,67589,999,2772,.51887426E-3,.16715E-3,0
STARLINK-36376,2026-018B,2026-07-20T17:32:09.297888,15.33424592,.00012284,97.2844,266.0628,218.3405,141.7750,0,U,67590,999,2772,.45735328E-3,.14709E-3,0
STARLINK-36391,2026-018C,2026-07-20T21:27:03.873312,15.33462738,.00009508,97.2839,266.1498,105.5760,254.5588,0,U,67591,999,2774,.4933009E-3,.15893E-3,0
STARLINK-36603,2026-018D,2026-07-20T17:24:19.346688,15.33446798,.00003841,97.2845,266.0714,223.6451,136.4762,0,U,67592,999,2772,.32248071E-3,.10351E-3,0
STARLINK-36634,2026-018E,2026-07-20T21:58:23.835360,15.33447298,.00007789,97.2861,266.2733,102.2568,257.8762,0,U,67593,999,2775,.27839721E-3,.8924E-4,0
STARLINK-36638,2026-018F,2026-07-20T18:11:18.471552,15.33440844,.00002363,97.2840,266.0264,217.2223,142.9003,0,U,67594,999,2772,.24655E-3,.7892E-4,0
STARLINK-36628,2026-018G,2026-07-20T22:21:53.141184,15.33453492,.00001294,97.2847,266.2490,206.6472,153.4764,0,U,67595,999,2775,.43258247E-3,.1392E-3,0
STARLINK-36629,2026-018H,2026-07-20T17:51:43.855776,15.33446532,.00001516,97.2844,266.0437,67.2798,292.8460,0,U,67596,999,2772,.25803231E-3,.8265E-4,0
